NORAD_CAT_ID,OBJECT_NAME,OBJECT_TYPE,EPOCH,MEAN_MOTION,ECCENTRICITY,INCLINATION,RA_OF_ASC_NODE,ARG_OF_PERICENTER,MEAN_ANOMALY,BSTAR,MEAN_MOTION_DOT,MEAN_MOTION_DDOT,TLE_LINE0,TLE_LINE1,TLE_LINE2,SEMIMAJOR_AXIS,PERIOD,APOGEE,PERIGEE,DECAYED
49753.0,STARLINK-3200,PAYLOAD,2022-05-25 14:00:01,15.0883888,0.0002459,53.2202,242.6195,31.0675,39.2631,0.00056151,8.659e-05,0.0,0 STARLINK-3200,1 49753U 21115AF  22145.58334491  .00008659  00000-0  56151-3 0  9998,2 49753  53.2202 242.6195 0002459  31.0675  39.2631 15.08838880  1302,6917.884,95.438,541.45,538.048,0.0
49753.0,STARLINK-3200,PAYLOAD,2022-05-25 22:00:00,15.088838,0.0002378,53.2199,241.1224,29.6824,52.2477,-0.003611,-0.00057371,0.0,0 STARLINK-3200,1 49753U 21115AF  22145.91667824 -.00057371  00000-0 -36110-2 0  9993,2 49753  53.2199 241.1224 0002378  29.6824  52.2477 15.08883800  1308,6917.746999999999,95.435,541.257,537.966,0.0
49753.0,STARLINK-3200,PAYLOAD,2022-05-26 11:56:48,15.08847152,0.000231,53.2199,238.5115,29.9185,330.1939,-2.605e-06,-3.3e-06,0.0,0 STARLINK-3200,1 49753U 21115AF  22146.49777961 -.00000330  00000-0 -26050-5 0  9999,2 49753  53.2199 238.5115 0002310  29.9185 330.1939 15.08847152 27833,6917.859,95.437,541.322,538.126,0.0
49753.0,STARLINK-3200,PAYLOAD,2022-05-26 13:32:11,15.08850178,0.0002263,53.2199,238.215,29.4471,330.6649,0.0001215,1.646e-05,0.0,0 STARLINK-3200,1 49753U 21115AF  22146.56401915  .00001646  00000-0  12150-3 0  9993,2 49753  53.2199 238.2150 0002263  29.4471 330.6649 15.08850178 26732,6917.849,95.437,541.28,538.149,0.0
49753.0,STARLINK-3200,PAYLOAD,2022-05-26 22:00:00,15.08831125,0.0002255,53.2197,236.6336,25.0882,91.6512,-0.0025331,-0.00040369,0.0,0 STARLINK-3200,1 49753U 21115AF  22146.91667824 -.00040369  00000-0 -25331-2 0  9996,2 49753  53.2197 236.6336 0002255  25.0882  91.6512 15.08831125 27899,6917.908,95.438,541.3330000000002,538.2130000000002,0.0
49753.0,STARLINK-3200,PAYLOAD,2022-05-27 13:22:59,15.08832939,0.0002224,53.221,233.7558,33.3308,326.7824,-9.0264e-05,-1.724e-05,0.0,0 STARLINK-3200,1 49753U 21115AF  22147.55763690 -.00001724  00000-0 -90264-4 0  9996,2 49753  53.2210 233.7558 0002224  33.3308 326.7824 15.08832939 26880,6917.901999999999,95.438,541.306,538.2280000000002,0.0
49753.0,STARLINK-3200,PAYLOAD,2022-05-27 16:00:00,15.08800246,0.0002416,53.2197,233.2685,24.8158,207.9537,0.003487,0.00055586,0.0,0 STARLINK-3200,1 49753U 21115AF  22147.66667824  .00055586  00000-0  34870-2 0  9992,2 49753  53.2197 233.2685 0002416  24.8158 207.9537 15.08800246 28015,6918.002,95.44,541.538,538.196,0.0
49753.0,STARLINK-3200,PAYLOAD,2022-05-27 22:00:01,15.08846796,0.0002303,53.2196,232.145,25.6498,125.8565,-0.0010091,-0.00016316,0.0,0 STARLINK-3200,1 49753U 21115AF  22147.91668981 -.00016316  00000-0 -10091-2 0  9994,2 49753  53.2196 232.1450 0002303  25.6498 125.8565 15.08846796  1305,6917.86,95.437,541.318,538.131,0.0
49753.0,STARLINK-3200,PAYLOAD,2022-05-28 06:00:02,15.08847201,0.0002229,53.2198,230.6482,29.2514,133.8465,0.0013037,0.00020526,0.0,0 STARLINK-3200,1 49753U 21115AF  22148.25002315  .00020526  00000-0  13037-2 0  9994,2 49753  53.2198 230.6482 0002229  29.2514 133.8465 15.08847201 28096,6917.858,95.437,541.265,538.181,0.0
49753.0,STARLINK-3200,PAYLOAD,2022-05-28 13:13:45,15.08848408,0.0002327,53.2207,229.2959,30.6118,329.501,0.00011534,1.548e-05,0.0,0 STARLINK-3200,1 49753U 21115AF  22148.55122149  .00001548  00000-0  11534-3 0  9999,2 49753  53.2207 229.2959 0002327  30.6118 329.5010 15.08848408 27038,6917.855,95.437,541.3290000000002,538.11,0.0
49753.0,STARLINK-3200,PAYLOAD,2022-05-28 22:00:00,15.08861125,0.0002375,53.2196,227.6562,24.3131,161.9566,-0.00056313,-9.245e-05,0.0,0 STARLINK-3200,1 49753U 21115AF  22148.91667824 -.00009245  00000-0 -56313-3 0  9991,2 49753  53.2196 227.6562 0002375  24.3131 161.9566 15.08861125  1302,6917.816,95.436,541.3240000000002,538.038,0.0
49753.0,STARLINK-3200,PAYLOAD,2022-05-29 06:00:02,15.08857995,0.0002312,53.2199,226.1596,29.0737,168.8546,-0.0020805,-0.00033265,0.0,0 STARLINK-3200,1 49753U 21115AF  22149.25002315 -.00033265  00000-0 -20805-2 0  9992,2 49753  53.2199 226.1596 0002312  29.0737 168.8546 15.08857995 28247,6917.825,95.436,541.29,538.091,0.0
49753.0,STARLINK-3200,PAYLOAD,2022-05-29 14:00:01,15.08829787,0.000257,53.2198,224.6651,26.3068,183.1624,-0.0010894,-0.0001758,0.0,0 STARLINK-3200,1 49753U 21115AF  22149.58334491 -.00017580  00000-0 -10894-2 0  9990,2 49753  53.2198 224.6651 0002570  26.3068 183.1624 15.08829787  1307,6917.9119999999975,95.438,541.555,537.999,0.0
49753.0,STARLINK-3200,PAYLOAD,2022-05-29 22:00:00,15.08818594,0.0002414,53.2194,223.1675,24.3696,196.6828,-0.0026348,-0.00041955,0.0,0 STARLINK-3200,1 49753U 21115AF  22149.91667824 -.00041955  00000-0 -26348-2 0  9990,2 49753  53.2194 223.1675 0002414  24.3696 196.6828 15.08818594  1304,6917.946,95.439,541.481,538.141,0.0
49753.0,STARLINK-3200,PAYLOAD,2022-05-30 04:58:25,15.08830184,0.0002489,53.2201,221.8632,31.7734,328.3408,-0.00022033,-3.792e-05,0.0,0 STARLINK-3200,1 49753U 21115AF  22150.20723492 -.00003792  00000-0 -22033-3 0  9993,2 49753  53.2201 221.8632 0002489  31.7734 328.3408 15.08830184 28393,6917.91,95.438,541.497,538.054,0.0
49753.0,STARLINK-3200,PAYLOAD,2022-05-30 12:55:21,15.08829718,0.0002352,53.2206,220.3748,30.49,329.6228,-0.00013025,-2.36e-05,0.0,0 STARLINK-3200,1 49753U 21115AF  22150.53844279 -.00002360  00000-0 -13025-3 0  9997,2 49753  53.2206 220.3748 0002352  30.4900 329.6228 15.08829718 27338,6917.9119999999975,95.438,541.404,538.15,0.0
49753.0,STARLINK-3200,PAYLOAD,2022-05-30 22:00:00,15.08846901,0.0002499,53.218,218.6789,27.4958,228.2629,-0.00083195,-0.00013508,0.0,0 STARLINK-3200,1 49753U 21115AF  22150.91667824 -.00013508  00000-0 -83195-3 0  9999,2 49753  53.2180 218.6789 0002499  27.4958 228.2629 15.08846901  1306,6917.859,95.437,541.453,537.996,0.0
49753.0,STARLINK-3200,PAYLOAD,2022-05-31 06:00:02,15.08854735,0.0002448,53.2181,217.1826,30.2234,237.1862,-0.0002742,-4.652e-05,0.0,0 STARLINK-3200,1 49753U 21115AF  22151.25002315 -.00004652  00000-0 -27420-3 0  9994,2 49753  53.2181 217.1826 0002448  30.2234 237.1862 15.08854735 28554,6917.835,95.437,541.394,538.007,0.0
49753.0,STARLINK-3200,PAYLOAD,2022-05-31 20:43:03,15.08839619,0.0002579,53.2191,214.4295,28.5708,331.5426,0.00012431,1.691e-05,0.0,0 STARLINK-3200,1 49753U 21115AF  22151.86322970  .00001691  00000-0  12431-3 0  9997,2 49753  53.2191 214.4295 0002579  28.5708 331.5426 15.08839619 27532,6917.882,95.438,541.531,537.962,0.0
49753.0,STARLINK-3200,PAYLOAD,2022-06-01 14:00:01,15.08817151,0.0002657,53.2175,211.199,26.3543,287.4478,0.0026686999999999,0.00042415,0.0,0 STARLINK-3200,1 49753U 21115AF  22152.58334491  .00042415  00000-0  26687-2 0  9994,2 49753  53.2175 211.1990 0002657  26.3543 287.4478 15.08817151 28758,6917.95,95.439,541.653,537.977,0.0
49753.0,STARLINK-3200,PAYLOAD,2022-06-01 20:00:01,15.08855607,0.0002522,53.2172,210.0754,27.0244,205.4599,-0.0020078,-0.00032116,0.0,0 STARLINK-3200,1 49753U 21115AF  22152.83334491 -.00032116  00000-0 -20078-2 0  9999,2 49753  53.2172 210.0754 0002522  27.0244 205.4599 15.08855607  1302,6917.833000000001,95.437,541.442,537.953,0.0
49753.0,STARLINK-3200,PAYLOAD,2022-06-02 20:24:36,15.08845348,0.0002592,53.2182,205.5094,30.7573,329.357,2.3082e-05,7.9e-07,0.0,0 STARLINK-3200,1 49753U 21115AF  22153.85042819  .00000079  00000-0  23082-4 0  9993,2 49753  53.2182 205.5094 0002592  30.7573 329.3570 15.08845348 27834,6917.864000000001,95.437,541.5219999999998,537.936,0.0
49753.0,STARLINK-3200,PAYLOAD,2022-06-03 12:18:29,15.08836853,0.0002701,53.2182,202.5354,29.6128,330.5017,-0.00011432,-2.107e-05,0.0,0 STARLINK-3200,1 49753U 21115AF  22154.51283714 -.00002107  00000-0 -11432-3 0  9999,2 49753  53.2182 202.5354 0002701  29.6128 330.5017 15.08836853 29041,6917.89,95.438,541.624,537.886,0.0
49753.0,STARLINK-3200,PAYLOAD,2022-06-04 10:33:53,15.08834092,0.0002613,53.2187,198.3727,33.4118,326.7038,-1.6282e-05,-5.48e-06,0.0,0 STARLINK-3200,1 49753U 21115AF  22155.44019862 -.00000548  00000-0 -16282-4 0  9999,2 49753  53.2187 198.3727 0002613  33.4118 326.7038 15.08834092 28071,6917.898,95.438,541.571,537.956,0.0
49753.0,STARLINK-3200,PAYLOAD,2022-06-05 22:00:00,15.08823123,0.0002661,53.2169,191.7448,31.8346,72.6176,0.0019525,0.00030909,0.0,0 STARLINK-3200,1 49753U 21115AF  22156.91667824  .00030909  00000-0  19525-2 0  9992,2 49753  53.2169 191.7448 0002661  31.8346  72.6176 15.08823123 29407,6917.932,95.439,541.638,537.956,0.0
49753.0,STARLINK-3200,PAYLOAD,2022-06-06 14:00:01,15.08830955,0.0002963,53.2171,188.7538,30.7917,96.8523,0.0020184,0.00031974,0.0,0 STARLINK-3200,1 49753U 21115AF  22157.58334491  .00031974  00000-0  20184-2 0  9993,2 49753  53.2171 188.7538 0002963  30.7917  96.8523 15.08830955 29509,6917.908,95.438,541.823,537.7230000000002,0.0
49753.0,STARLINK-3200,PAYLOAD,2022-06-06 20:00:01,15.08847723,0.0002803,53.2175,187.63,33.3306,13.015,-0.00027773,-4.707e-05,0.0,0 STARLINK-3200,1 49753U 21115AF  22157.83334491 -.00004707  00000-0 -27773-3 0  9999,2 49753  53.2175 187.6300 0002803  33.3306  13.0150 15.08847723  1308,6917.857,95.437,541.661,537.783,0.0
49753.0,STARLINK-3200,PAYLOAD,2022-06-07 05:20:04,15.08843804,0.0002795,53.2186,185.884,34.5373,325.5801,6.6468e-05,7.699999999999999e-06,0.0,0 STARLINK-3200,1 49753U 21115AF  22158.22227351  .00000770  00000-0  66468-4 0  9998,2 49753  53.2186 185.8840 0002795  34.5373 325.5801 15.08843804 29609,6917.869000000002,95.437,541.6669999999998,537.8,0.0
49753.0,STARLINK-3200,PAYLOAD,2022-06-07 11:41:36,15.08846441,0.0002817,53.2185,184.6946,34.6405,325.4770000000001,6.8836e-05,8.07e-06,0.0,0 STARLINK-3200,1 49753U 21115AF  22158.48723122  .00000807  00000-0  68836-4 0  9995,2 49753  53.2185 184.6946 0002817  34.6405 325.4770 15.08846441 28539,6917.861,95.437,541.674,537.7769999999998,0.0
